[{"OBJECT_NAME":"STARLINK-1046","OBJECT_ID":"2019-074AQ","EPOCH":"2026-03-09T14:38:51.565056","MEAN_MOTION":15.43628463,"ECCENTRICITY":0.0004661,"INCLINATION":53.0538,"RA_OF_ASC_NODE":211.228,"ARG_OF_PERICENTER":174.7862,"MEAN_ANOMALY":185.3192,"EPHEMERIS_TYPE":0,"CLASSIFICATION_TYPE":"U","NORAD_CAT_ID":44751,"ELEMENT_SET_NO":999,"REV_AT_EPOCH":34840,"BSTAR":0.00054883,"MEAN_MOTION_DOT":0.00024762,"MEAN_MOTION_DDOT":0},{"OBJECT_NAME":"STARLINK-2041","OBJECT_ID":"2021-012AP","EPOCH":"2026-03-09T22:00:01.999584","MEAN_MOTION":15.43872381,"ECCENTRICITY":0.00014725,"INCLINATION":53.1608,"RA_OF_ASC_NODE":63.4955,"ARG_OF_PERICENTER":92.1005,"MEAN_ANOMALY":286.7548,"EPHEMERIS_TYPE":0,"CLASSIFICATION_TYPE":"U","NORAD_CAT_ID":47657,"ELEMENT_SET_NO":999,"REV_AT_EPOCH":580,"BSTAR":0.0025069191,"MEAN_MOTION_DOT":0.00116913,"MEAN_MOTION_DDOT":0}]
